<?xml version="1.0" encoding="UTF-8"?>
<kml xmlns="http://www.opengis.net/kml/2.2"><Document><name>שני · ראפטינג והמפל הדביק</name><Placemark><name>שני · ראפטינג והמפל הדביק — 160 ק״מ · 196 דק׳</name><Style><LineStyle><color>dd3f5c1e</color><width>5</width></LineStyle></Style><LineString><tessellate>1</tessellate><coordinates>98.986004,18.781159,0 98.988977,18.781453,0 98.987351,18.794086,0 98.986647,18.795305,0 98.984153,18.795517,0 98.986435,18.795956,0 98.98452,18.81059,0 98.980766,18.820276,0 98.978751,18.827953,0 98.968379,18.853573,0 98.964355,18.86625,0 98.961787,18.877672,0 98.954934,18.888463,0 98.944914,18.91535,0 98.939253,18.924887,0 98.940411,18.929739,0 98.940397,18.932677,0 98.943208,18.938581,0 98.943011,18.944323,0 98.944973,18.954956,0 98.944088,18.962647,0 98.945525,18.967549,0 98.945132,18.977774,0 98.946215,18.996704,0 98.944712,19.002288,0 98.944328,19.019028,0 98.945086,19.030626,0 98.946537,19.036198,0 98.946616,19.043238,0 98.946302,19.048958,0 98.943012,19.05414,0 98.942233,19.056307,0 98.942361,19.059535,0 98.940045,19.063018,0 98.937113,19.081595,0 98.935693,19.098055,0 98.936785,19.106817,0 98.942353,19.120282,0 98.948779,19.126337,0 98.949209,19.131583,0 98.948074,19.137841,0 98.946943,19.139586,0 98.947716,19.142086,0 98.947377,19.144079,0 98.944773,19.151531,0 98.938888,19.162656,0 98.933347,19.164492,0 98.926464,19.171159,0 98.916771,19.174505,0 98.916035,19.17621,0 98.916038,19.178827,0 98.911116,19.181464,0 98.908626,19.184686,0 98.905716,19.185039,0 98.903478,19.18771,0 98.900701,19.189053,0 98.891108,19.200756,0 98.885113,19.200214,0 98.881761,19.201329,0 98.878929,19.208286,0 98.876293,19.209688,0 98.874754,19.209632,0 98.873437,19.212066,0 98.871433,19.213143,0 98.871506,19.213832,0 98.869084,19.215901,0 98.867922,19.21599,0 98.866468,19.215159,0 98.862053,19.21633,0 98.855181,19.219003,0 98.853641,19.221616,0 98.852194,19.220514,0 98.847387,19.221295,0 98.846789,19.218981,0 98.847363,19.218437,0 98.84697,19.219561,0 98.847387,19.221295,0 98.852194,19.220514,0 98.853641,19.221616,0 98.855181,19.219003,0 98.862053,19.21633,0 98.866468,19.215159,0 98.868488,19.216096,0 98.869958,19.215526,0 98.871506,19.213832,0 98.871433,19.213143,0 98.873437,19.212066,0 98.874601,19.209751,0 98.876293,19.209688,0 98.878929,19.208286,0 98.881761,19.201329,0 98.885113,19.200214,0 98.891108,19.200756,0 98.900701,19.189053,0 98.903478,19.18771,0 98.905716,19.185039,0 98.908626,19.184686,0 98.911116,19.181464,0 98.916038,19.178827,0 98.916035,19.17621,0 98.916771,19.174505,0 98.926464,19.171159,0 98.933347,19.164492,0 98.938424,19.163094,0 98.944773,19.151531,0 98.946537,19.146447,0 98.947815,19.151013,0 98.946734,19.146397,0 98.947812,19.142269,0 98.947047,19.139616,0 98.948197,19.137812,0 98.949501,19.131472,0 98.964464,19.140681,0 98.969023,19.144122,0 98.976117,19.14447,0 98.981967,19.143682,0 98.993968,19.144487,0 99.002103,19.144905,0 99.006645,19.145988,0 99.010386,19.145978,0 99.012291,19.145299,0 99.011498,19.144468,0 99.009305,19.13712,0 99.009856,19.133904,0 99.010913,19.133511,0 99.009346,19.129294,0 99.006387,19.126512,0 99.003714,19.125598,0 99.002321,19.122895,0 99.002269,19.120843,0 99.005665,19.120166,0 99.006879,19.119115,0 99.007068,19.117808,0 99.015401,19.112726,0 99.023441,19.111412,0 99.034569,19.107779,0 99.044676,19.107173,0 99.054275,19.103681,0 99.060058,19.103864,0 99.064663,19.102535,0 99.068351,19.103015,0 99.073413,19.099483,0 99.08028,19.099609,0 99.084566,19.092194,0 99.086652,19.089769,0 99.087012,19.079759,0 99.086702,19.075471,0 99.082544,19.073879,0 99.082094,19.072867,0 99.082429,19.070723,0 99.081021,19.070342,0 99.080222,19.071126,0 99.079912,19.069781,0 99.079101,19.069512,0 99.080008,19.071088,0 99.081021,19.070342,0 99.082429,19.070723,0 99.082094,19.072867,0 99.082544,19.073879,0 99.086702,19.075471,0 99.087012,19.079759,0 99.086652,19.089769,0 99.084566,19.092194,0 99.08028,19.099609,0 99.073413,19.099483,0 99.068351,19.103015,0 99.064663,19.102535,0 99.060058,19.103864,0 99.054275,19.103681,0 99.04424,19.107264,0 99.034569,19.107779,0 99.023441,19.111412,0 99.015401,19.112726,0 99.009962,19.11627,0 99.006647,19.116737,0 99.001588,19.11472,0 99.000673,19.113462,0 99.000879,19.105854,0 98.99974,19.100726,0 99.001156,19.096801,0 98.999602,19.08959,0 98.998178,19.088779,0 98.985276,19.089738,0 98.983805,19.08919,0 98.979612,19.081163,0 98.978703,19.074203,0 98.977055,19.070918,0 98.973819,19.070796,0 98.971124,19.069579,0 98.966669,19.069839,0 98.960125,19.065922,0 98.95615,19.069227,0 98.953422,19.070464,0 98.944842,19.072353,0 98.938773,19.071842,0 98.940217,19.062807,0 98.942539,19.059279,0 98.94271,19.055127,0 98.946498,19.048683,0 98.946743,19.042666,0 98.946644,19.036149,0 98.945173,19.030559,0 98.944445,19.019026,0 98.944835,19.00194,0 98.946308,18.996704,0 98.945245,18.97819,0 98.94561,18.967545,0 98.944166,18.962643,0 98.945051,18.954958,0 98.943114,18.944335,0 98.943299,18.938564,0 98.940476,18.932658,0 98.940491,18.929725,0 98.939366,18.924861,0 98.944814,18.915826,0 98.955156,18.888305,0 98.961867,18.877832,0 98.964436,18.866273,0 98.967928,18.855354,0 98.978825,18.828064,0 98.981055,18.819879,0 98.984762,18.810079,0 98.985946,18.800893,0 98.990016,18.799411,0 98.989868,18.795707,0 98.993901,18.795351,0 98.992999,18.781165,0 98.986004,18.781159,0</coordinates></LineString></Placemark></Document></kml>