<?xml version="1.0" encoding="UTF-8"?>
<kml xmlns="http://www.opengis.net/kml/2.2"><Document><name>שלישי · אל הפילים</name><Placemark><name>שלישי · אל הפילים — 60 ק״מ · 85 דק׳</name><Style><LineStyle><color>dd223ba6</color><width>5</width></LineStyle></Style><LineString><tessellate>1</tessellate><coordinates>98.986004,18.781159,0 98.97771,18.781466,0 98.977623,18.7888,0 98.965123,18.78973,0 98.9608,18.790928,0 98.958454,18.784293,0 98.95813,18.779047,0 98.953548,18.776975,0 98.951693,18.773936,0 98.950329,18.769151,0 98.945389,18.769488,0 98.945401,18.770184,0 98.942967,18.770795,0 98.941363,18.772864,0 98.940839,18.772701,0 98.941363,18.772864,0 98.942967,18.770795,0 98.945401,18.770184,0 98.94526,18.765371,0 98.946043,18.764686,0 98.947097,18.765425,0 98.9449,18.76307,0 98.943424,18.759221,0 98.943398,18.757088,0 98.941076,18.75613,0 98.941821,18.753063,0 98.940972,18.750914,0 98.941768,18.744625,0 98.932811,18.738659,0 98.930498,18.735156,0 98.926747,18.733969,0 98.926567,18.728361,0 98.928624,18.719651,0 98.924164,18.710584,0 98.904981,18.704647,0 98.901967,18.701597,0 98.898879,18.694537,0 98.896423,18.691753,0 98.898285,18.682361,0 98.895554,18.678581,0 98.891744,18.674974,0 98.881022,18.66799,0 98.878101,18.666912,0 98.870388,18.660854,0 98.868227,18.660094,0 98.866568,18.657875,0 98.863084,18.655394,0 98.856565,18.651658,0 98.853712,18.648293,0 98.849423,18.645478,0 98.848209,18.643428,0 98.841851,18.63968,0 98.840804,18.637636,0 98.835098,18.605738,0 98.821089,18.599601,0 98.816839,18.599282,0 98.8063,18.60213,0 98.804794,18.602025,0 98.802417,18.600013,0 98.799391,18.602019,0 98.798194,18.604318,0 98.791911,18.604784,0 98.788417,18.603867,0 98.786082,18.604107,0 98.782178,18.606193,0 98.780068,18.613193,0 98.778841,18.615015,0 98.770756,18.6178,0 98.768805,18.617188,0 98.763872,18.619461,0 98.762033,18.618308,0 98.756555,18.616696,0 98.753986,18.617428,0 98.74431,18.617968,0 98.739502,18.61908,0 98.73742,18.618158,0 98.732635,18.618118,0 98.730665,18.618714,0 98.729896,18.619776,0 98.727777,18.618691,0 98.723344,18.621977,0 98.719459,18.622912,0 98.71755,18.625046,0 98.714418,18.62584,0 98.714911,18.62908,0 98.712165,18.631204,0 98.707924,18.631903,0 98.706242,18.632895,0 98.703549,18.637855,0 98.699889,18.638991,0 98.700025,18.641627,0 98.698148,18.644737,0 98.692001,18.649226,0 98.690774,18.653048,0 98.686457,18.655316,0 98.681995,18.656117,0 98.680033,18.655597,0 98.676701,18.655992,0 98.666924,18.659549,0 98.664966,18.660972,0 98.660445,18.662068,0 98.657746,18.665582,0 98.657597,18.669104,0 98.654342,18.670033,0 98.652851,18.671298,0 98.64983,18.671497,0 98.644465,18.669854,0 98.641094,18.670281,0 98.639899,18.668866,0 98.64013,18.665227,0 98.638054,18.66396,0 98.638575,18.662518,0 98.637574,18.661199,0 98.637914,18.659632,0 98.633985,18.657931,0</coordinates></LineString></Placemark></Document></kml>