<?xml version="1.0" encoding="UTF-8"?>
<kml xmlns="http://www.opengis.net/kml/2.2"><Document><name>שישי · Skyline</name><Placemark><name>שישי · Skyline — 29 ק״מ · 48 דק׳</name><Style><LineStyle><color>dd7a6b13</color><width>5</width></LineStyle></Style><LineString><tessellate>1</tessellate><coordinates>99.307582,18.867429,0 99.306443,18.866907,0 99.304305,18.863682,0 99.301567,18.862572,0 99.299455,18.863222,0 99.298655,18.862405,0 99.29252,18.863629,0 99.291377,18.863125,0 99.288518,18.864658,0 99.286871,18.863395,0 99.284635,18.863965,0 99.282289,18.863503,0 99.281852,18.862446,0 99.28075,18.862525,0 99.278315,18.86058,0 99.275476,18.859799,0 99.275705,18.861137,0 99.273188,18.864688,0 99.266497,18.870838,0 99.265418,18.875889,0 99.263633,18.876475,0 99.265517,18.879528,0 99.265811,18.882367,0 99.26309,18.889108,0 99.261723,18.895709,0 99.264236,18.895788,0 99.265,18.896689,0 99.268846,18.897426,0 99.270132,18.898816,0 99.272035,18.899282,0 99.274561,18.898508,0 99.275562,18.901925,0 99.276827,18.901512,0 99.277857,18.901975,0 99.279016,18.904614,0 99.28323,18.902251,0 99.287444,18.903153,0 99.288517,18.902324,0 99.28977,18.902357,0 99.292628,18.902909,0 99.294251,18.904054,0 99.296551,18.904135,0 99.29721,18.905316,0 99.302156,18.907235,0 99.303535,18.909046,0 99.310854,18.913667,0 99.310578,18.914182,0 99.311467,18.914713,0 99.311151,18.915682,0 99.312483,18.917648,0 99.312076,18.918859,0 99.312467,18.921473,0 99.313995,18.922844,0 99.315068,18.922393,0 99.315015,18.923179,0 99.316746,18.923573,0 99.318582,18.922515,0 99.321227,18.922981,0 99.323732,18.9222,0 99.328735,18.922604,0 99.330989,18.921121,0 99.333029,18.921753,0 99.335145,18.924318,0 99.340813,18.92548,0 99.342158,18.929147,0 99.343836,18.930191,0 99.344652,18.931723,0 99.347262,18.932015,0 99.347555,18.934233,0 99.349443,18.935165,0 99.350001,18.936748,0 99.351267,18.937149,0 99.352571,18.939128,0 99.355709,18.939468,0 99.357288,18.942176,0 99.355742,18.944543,0 99.356038,18.945705,0 99.354736,18.945459,0 99.35417,18.946833,0 99.35081,18.950076,0 99.347885,18.951805,0 99.345606,18.952098,0 99.344512,18.954289,0 99.342134,18.955663,0 99.338025,18.95736,0 99.336854,18.956515,0 99.336862,18.957707,0 99.334732,18.957734,0 99.332255,18.959671,0 99.332212,18.954187,0 99.331686,18.952893,0 99.332037,18.950886,0 99.331302,18.94871,0 99.332741,18.948007,0 99.334206,18.950408,0 99.334112,18.95323,0</coordinates></LineString></Placemark></Document></kml>