<?xml version="1.0" encoding="UTF-8"?>
<kml xmlns="http://www.opengis.net/kml/2.2"><Document><name>המקומות</name><Placemark><name>🏨 המלון בעיר</name><description>19–22.9

שלושה לילות. שוק ההליכה של שבת ושל ראשון במרחק הליכה. המזוודות הגדולות נשארות כאן גם בזמן שאתם אצל הפילים.</description><Point><coordinates>98.986,18.781,0</coordinates></Point></Placemark><Placemark><name>💦 פארק המים גרנד קניון</name><description>ראשון 20.9

מחצבה מוצפת בטורקיז: מסלול מכשולים מתנפח ענק, מגלשות מגובה 10 מ׳, קפיצות לצוק וקיאקים.
⭐4.3 · 4,417 ביקורות · 10:00–19:00 · ~฿1,000–1,200 לאדם</description><Point><coordinates>98.8919,18.6974,0</coordinates></Point></Placemark><Placemark><name>🚣 8Adventures — ראפטינג</name><description>שני 21.9 · בוקר

מסלול 8 ק״מ, דרגה 2–3, מגיל 7. ספטמבר הוא שיא המים.
⚠️ לא את מסלול 10 הק״מ — הוא דורש גיל 15.
⭐4.8 · 491 ביקורות · לבקש את משבצת 10:00</description><Point><coordinates>98.8492,19.2207,0</coordinates></Point></Placemark><Placemark><name>💦 המפל הדביק (Bua Tong)</name><description>שני 21.9 · אחה״צ

הסלע מצופה מינרלים ולכן מחוספס — מטפסים במעלה המפל יחפים, שלוש קומות, עם חבלים בקטעים התלולים.
כניסה חינם · 08:00–17:00 · 50 דקות מהראפטינג, ולכן באותו יום</description><Point><coordinates>99.0791,19.0694,0</coordinates></Point></Placemark><Placemark><name>🎨 באן קאנג ואט — כפר האמנים</name><description>שלישי 22.9 · בוקר

סדנאות ובתי מלאכה: קדרות, צביעת בדים, עבודות עור, הדפס. מקום שעושים בו משהו בידיים, לא רק מסתכלים.</description><Point><coordinates>98.942,18.772,0</coordinates></Point></Placemark><Placemark><name>🐘 צ׳אי לאי אורכיד</name><description>22–24.9

שני לילות עם הפילים. בקתות במבוק על הנהר, גשר עץ תלוי, והפילים באים למרפסת בארוחת הבוקר.
✅ מוזמן ושולם · להגיע לפני 16:00 (שעת הפילים)</description><Point><coordinates>98.6336,18.6583,0</coordinates></Point></Placemark><Placemark><name>♨️ המעיינות החמים של סן קמפאנג</name><description>חמישי 24.9

גייזר טבעי של 20 מטר. קונים סלסלת ביצי שליו ומבשלים אותן בתעלות הרותחות. אמבטיות רגליים, בריכות מינרליות וגנים לפיקניק.
⭐4.4 · 11,499 ביקורות · 07:00–18:00 · ฿100/฿50</description><Point><coordinates>99.2294,18.8145,0</coordinates></Point></Placemark><Placemark><name>🏔️ הבקתות בעמק מאה און</name><description>24–26.9

שני לילות בהרים. בקתות של 1–3 חדרי שינה.
דקה אחת ממפל מאה קמפונג, שתיים מהכפר ההררי, 48 דקות מ-Skyline.
⭐4.5 · 1,145 ביקורות</description><Point><coordinates>99.3076,18.8674,0</coordinates></Point></Placemark><Placemark><name>💦 מפל מאה קמפונג</name><description>חמישי–שישי

שביל שמטפס לאורך המפל בין העצים, עם תצפית על העמק. דקה מהבקתה — הולכים ברגל.
⭐4.5 · 2,925 ביקורות</description><Point><coordinates>99.3053,18.8626,0</coordinates></Point></Placemark><Placemark><name>🎢 Skyline Adventure</name><description>שישי 25.9

28 קווי אומגה, כולל הארוך והגבוה בצ׳יאנג מאי. 38 פלטפורמות, נדנדות ענק, וקארט לוּגֶ׳ בסוף.
מגיל 4 · ⭐4.8 · 1,291 ביקורות
฿2,250–2,450 לאדם · 08:00–17:00</description><Point><coordinates>99.3342,18.9532,0</coordinates></Point></Placemark><Placemark><name>✈️ שדה התעופה צ׳יאנג מאי</name><description>שבת 26.9

PG242 ממריאה 11:35 לקוסמוי. יוצאים מהבקתות ~09:00.</description><Point><coordinates>98.962,18.7677,0</coordinates></Point></Placemark></Document></kml>