<?xml version="1.0" encoding="UTF-8"?>
<kml xmlns="http://www.opengis.net/kml/2.2"><Document><name>ראשון · פארק המים</name><Placemark><name>ראשון · פארק המים — 16 ק״מ · 25 דק׳</name><Style><LineStyle><color>dd24a8b9</color><width>4</width></LineStyle></Style><LineString><tessellate>1</tessellate><coordinates>98.986004,18.781159,0 98.981483,18.781101,0 98.980422,18.773426,0 98.945616,18.722759,0 98.927736,18.724397,0 98.928592,18.719488,0 98.923821,18.710259,0 98.905552,18.705055,0 98.901967,18.701597,0 98.89996,18.697133,0 98.899675,18.6984,0 98.89552,18.698945,0 98.892801,18.696449,0</coordinates></LineString></Placemark></Document></kml>