<?xml version="1.0" encoding="UTF-8"?>
<kml xmlns="http://www.opengis.net/kml/2.2"><Document><name>חמישי · אל עמק ההרים</name><Placemark><name>חמישי · אל עמק ההרים — 107 ק״מ · 143 דק׳</name><Style><LineStyle><color>dda03f6b</color><width>5</width></LineStyle></Style><LineString><tessellate>1</tessellate><coordinates>98.633985,18.657931,0 98.637914,18.659632,0 98.637574,18.661199,0 98.638575,18.662518,0 98.638054,18.66396,0 98.64013,18.665227,0 98.639899,18.668866,0 98.641094,18.670281,0 98.644465,18.669854,0 98.64983,18.671497,0 98.652851,18.671298,0 98.654342,18.670033,0 98.657597,18.669104,0 98.657746,18.665582,0 98.660445,18.662068,0 98.664966,18.660972,0 98.666924,18.659549,0 98.676701,18.655992,0 98.680033,18.655597,0 98.681995,18.656117,0 98.686457,18.655316,0 98.690774,18.653048,0 98.692001,18.649226,0 98.698148,18.644737,0 98.700025,18.641627,0 98.699889,18.638991,0 98.703549,18.637855,0 98.706242,18.632895,0 98.707924,18.631903,0 98.712165,18.631204,0 98.714911,18.62908,0 98.714418,18.62584,0 98.71755,18.625046,0 98.719459,18.622912,0 98.723344,18.621977,0 98.727777,18.618691,0 98.729896,18.619776,0 98.730665,18.618714,0 98.732635,18.618118,0 98.73742,18.618158,0 98.739502,18.61908,0 98.74431,18.617968,0 98.753986,18.617428,0 98.756555,18.616696,0 98.762033,18.618308,0 98.763872,18.619461,0 98.768805,18.617188,0 98.770756,18.6178,0 98.778841,18.615015,0 98.780068,18.613193,0 98.782178,18.606193,0 98.786082,18.604107,0 98.788417,18.603867,0 98.791911,18.604784,0 98.798194,18.604318,0 98.799391,18.602019,0 98.802417,18.600013,0 98.804794,18.602025,0 98.8063,18.60213,0 98.816839,18.599282,0 98.820725,18.599491,0 98.844076,18.610001,0 98.855573,18.613223,0 98.870686,18.619425,0 98.88311,18.623194,0 98.895299,18.624402,0 98.899032,18.63681,0 98.903974,18.650164,0 98.916813,18.676874,0 98.91992,18.687551,0 98.928248,18.697713,0 98.979439,18.771947,0 98.98096,18.77495,0 98.98618,18.780061,0 98.987775,18.780879,0 98.985562,18.781479,0 98.992477,18.781357,0 98.993,18.782593,0 98.993261,18.781038,0 99.003316,18.781569,0 99.003052,18.783902,0 99.005129,18.784059,0 99.005197,18.787672,0 99.036521,18.781557,0 99.057199,18.77682,0 99.088908,18.759907,0 99.115466,18.747324,0 99.123052,18.742316,0 99.138826,18.736,0 99.140768,18.736769,0 99.146155,18.737254,0 99.159678,18.741157,0 99.162852,18.742603,0 99.16951,18.74202,0 99.172109,18.741029,0 99.182882,18.739197,0 99.185882,18.740658,0 99.192945,18.741894,0 99.196998,18.743593,0 99.20431,18.742612,0 99.206724,18.744372,0 99.225922,18.752138,0 99.234666,18.757642,0 99.239581,18.76559,0 99.244745,18.79716,0 99.240272,18.800157,0 99.237233,18.804927,0 99.236744,18.80656,0 99.237412,18.809079,0 99.236928,18.810988,0 99.231691,18.812891,0 99.229682,18.814368,0 99.228258,18.81424,0 99.229682,18.814368,0 99.231691,18.812891,0 99.236928,18.810988,0 99.237412,18.809079,0 99.236744,18.80656,0 99.237233,18.804927,0 99.240272,18.800157,0 99.244745,18.79716,0 99.245553,18.799743,0 99.249349,18.802011,0 99.250145,18.80311,0 99.249575,18.810042,0 99.258425,18.818893,0 99.260394,18.828866,0 99.259765,18.829756,0 99.262339,18.834876,0 99.262286,18.8408,0 99.264702,18.846299,0 99.269288,18.849008,0 99.273236,18.853738,0 99.273598,18.858596,0 99.274849,18.859608,0 99.278315,18.86058,0 99.28075,18.862525,0 99.281852,18.862446,0 99.282289,18.863503,0 99.284635,18.863965,0 99.286871,18.863395,0 99.288518,18.864658,0 99.291377,18.863125,0 99.29252,18.863629,0 99.298655,18.862405,0 99.299455,18.863222,0 99.301567,18.862572,0 99.304305,18.863682,0 99.306443,18.866907,0 99.307582,18.867429,0</coordinates></LineString></Placemark></Document></kml>