<?xml version="1.0" encoding="UTF-8"?>
<kml xmlns="http://www.opengis.net/kml/2.2"><Document><name>שבת · לשדה התעופה</name><Placemark><name>שבת · לשדה התעופה — 50 ק״מ · 64 דק׳</name><Style><LineStyle><color>99999999</color><width>3</width></LineStyle></Style><LineString><tessellate>1</tessellate><coordinates>99.307582,18.867429,0 99.306443,18.866907,0 99.304305,18.863682,0 99.301567,18.862572,0 99.299455,18.863222,0 99.298655,18.862405,0 99.29252,18.863629,0 99.291377,18.863125,0 99.288518,18.864658,0 99.286871,18.863395,0 99.284635,18.863965,0 99.282289,18.863503,0 99.281852,18.862446,0 99.28075,18.862525,0 99.278315,18.86058,0 99.275476,18.859799,0 99.275705,18.861137,0 99.273188,18.864688,0 99.266497,18.870838,0 99.265418,18.875889,0 99.263633,18.876475,0 99.265517,18.879528,0 99.265811,18.882367,0 99.26309,18.889108,0 99.261412,18.896782,0 99.260021,18.897041,0 99.25852,18.899837,0 99.253395,18.904021,0 99.251589,18.906109,0 99.251671,18.907094,0 99.250782,18.908215,0 99.24786,18.908755,0 99.242538,18.907958,0 99.238521,18.909555,0 99.237,18.911225,0 99.237141,18.912898,0 99.236029,18.914734,0 99.235567,18.918205,0 99.233743,18.916768,0 99.229113,18.915036,0 99.225957,18.912729,0 99.222381,18.912206,0 99.218151,18.910508,0 99.21352,18.907347,0 99.205108,18.905602,0 99.19708,18.899822,0 99.193193,18.89977,0 99.191302,18.897532,0 99.190034,18.897454,0 99.187121,18.895457,0 99.186036,18.895486,0 99.184258,18.897046,0 99.181676,18.896888,0 99.179304,18.896173,0 99.178298,18.894095,0 99.176129,18.893007,0 99.172027,18.892982,0 99.169522,18.892303,0 99.165791,18.889129,0 99.137801,18.876168,0 99.13051,18.870324,0 99.080756,18.847544,0 99.05459,18.831574,0 99.046866,18.825964,0 99.029009,18.811298,0 99.01811,18.803651,0 99.014824,18.807782,0 99.010926,18.809327,0 98.986991,18.812104,0 98.979909,18.811214,0 98.975028,18.809296,0 98.97143,18.806556,0 98.968864,18.8032,0 98.962736,18.787668,0 98.963113,18.786334,0 98.962104,18.786038,0 98.96105,18.783619,0 98.960723,18.767894,0</coordinates></LineString></Placemark></Document></kml>